[
    {
        "Altitude(m)": 612502.1910679757,
        "Argument of Periapsis(deg)": 0.0,
        "Eccentricity": 0.0,
        "Inclination(deg)": 60.0,
        "Latitude(deg)": -28.135961690708594,
        "Longitude(deg)": 67.14827497444163,
        "Mean Anomaly(deg)": -32.72729999999996,
        "RAAN(deg)": 184.99999999999997,
        "Satellite Name": "Test1 834",
        "Satellite Number": 834,
        "Semi-Major Axis(m)": 6980739.136638005,
        "Time(s)": 0
    },
    {
        "Altitude(m)": 612308.6389084005,
        "Argument of Periapsis(deg)": 0.00010418945913296404,
        "Eccentricity": 0.0,
        "Inclination(deg)": 60.0,
        "Latitude(deg)": -27.623016696770954,
        "Longitude(deg)": 67.50174853826614,
        "Mean Anomaly(deg)": -32.1071938545381,
        "RAAN(deg)": 184.99957995086024,
        "Satellite Name": "Test1 834",
        "Satellite Number": 834,
        "Semi-Major Axis(m)": 6980739.136638005,
        "Time(s)": 10
    }
]